     2              NAVIGATION DATA                         RINEX VERSION / TYPE
CCRINEXN V1.6.0 UX  CDDIS               31-JAN-12 15:33     PGM / RUN BY / DATE 
IGS BROADCAST EPHEMERIS FILE                                COMMENT             
    0.1490D-07 -0.7451D-08 -0.5960D-07  0.1192D-06          ION ALPHA           
    0.1249D+06 -0.1311D+06  0.0000D+00 -0.6554D+05          ION BETA            
    0.000000000000D+00-0.355271367880D-14   319488     1673 DELTA-UTC: A0,A1,T,W
    15                                                      LEAP SECONDS        
                                                            END OF HEADER       
 7 12  1 30  4  0  0.0 0.534397549927D-04 0.272848410532D-11 0.000000000000D+00
    0.101000000000D+03-0.342187500000D+02 0.412338607703D-08-0.249464276336D+01
   -0.177323818207D-05 0.508009968325D-02 0.855140388012D-05 0.515362694168D+04
    0.100800000000D+06-0.484287738800D-07-0.222607299459D+01-0.800937414169D-07
    0.975596645745D+00 0.224968750000D+03-0.300408416485D+01-0.785282683324D-08
    0.857178564240D-11 0.100000000000D+01 0.167300000000D+04 0.000000000000D+00
    0.200000000000D+01 0.000000000000D+00-0.111758708954D-07 0.101000000000D+03
    0.944160000000D+05 0.400000000000D+01 0.000000000000D+00 0.000000000000D+00
 8 12  1 30  4  0  0.0 0.506639480591D-06 0.113686837722D-12 0.000000000000D+00
    0.500000000000D+02-0.366250000000D+02 0.360300722591D-08-0.307282914163D+01
   -0.183470547199D-05 0.120794400573D-01 0.904314219952D-05 0.515371529770D+04
    0.100800000000D+06-0.141561031342D-06-0.214528837756D+01-0.540167093277D-07
    0.997568070474D+00 0.226375000000D+03-0.298112566394D+01-0.745816741698D-08
    0.346443013166D-10 0.100000000000D+01 0.167300000000D+04 0.000000000000D+00
    0.200000000000D+01 0.000000000000D+00-0.419095158577D-08 0.500000000000D+02
    0.970680000000D+05 0.400000000000D+01 0.000000000000D+00 0.000000000000D+00
 9 12  1 30  4  0  0.0 0.135159119964D-03 0.250111042988D-11 0.000000000000D+00
    0.410000000000D+02-0.313437500000D+02 0.390087677289D-08 0.313618757798D+01
   -0.168010592461D-05 0.171787292929D-01 0.757910311222D-05 0.515363904762D+04
    0.100800000000D+06 0.266358256340D-06-0.225267887357D+01-0.167638063431D-07
    0.984406377917D+00 0.242968750000D+03 0.160401149265D+01-0.751102715014D-08
    0.178578867098D-11 0.000000000000D+00 0.167300000000D+04 0.000000000000D+00
    0.280000000000D+01 0.000000000000D+00-0.558793544769D-08 0.410000000000D+02
    0.936000000000D+05 0.400000000000D+01 0.000000000000D+00 0.000000000000D+00
10 12  1 30  4  0  0.0-0.273562036455D-04-0.136424205266D-11 0.000000000000D+00
    0.250000000000D+02 0.728750000000D+02 0.489663243286D-08 0.132181404364D+01
    0.380538403988D-05 0.111389494268D-01 0.738911330700D-05 0.515367045403D+04
    0.100800000000D+06-0.108033418655D-06 0.197061796017D+01 0.819563865662D-07
    0.946514091803D+00 0.230156250000D+03 0.739362770547D+00-0.840927860679D-08
    0.153577827539D-10 0.100000000000D+01 0.167300000000D+04 0.000000000000D+00
    0.200000000000D+01 0.000000000000D+00-0.279396772385D-08 0.250000000000D+02
    0.936180000000D+05 0.400000000000D+01 0.000000000000D+00 0.000000000000D+00
11 12  1 30  4  0  0.0-0.227610114962D-03-0.352429196937D-11 0.000000000000D+00
    0.410000000000D+02-0.184375000000D+02 0.602132210759D-08-0.231890138168D+01
   -0.989064574242D-06 0.127360604238D-01 0.875815749168D-05 0.515367575073D+04
    0.100800000000D+06 0.163912773132D-06 0.635112965084D+00-0.484287738800D-07
    0.888153659485D+00 0.169000000000D+03 0.102547383117D+01-0.850535464281D-08
   -0.960754323320D-10 0.100000000000D+01 0.167300000000D+04 0.000000000000D+00
    0.200000000000D+01 0.000000000000D+00-0.116415321827D-07 0.410000000000D+02
    0.936000000000D+05 0.000000000000D+00 0.000000000000D+00 0.000000000000D+00
12 12  1 30  4  0  0.0 0.495039857924D-04 0.216004991671D-11 0.000000000000D+00
    0.450000000000D+02-0.721875000000D+01 0.417660254369D-08-0.261715495201D+01
   -0.409781932831D-06 0.379857781809D-02 0.708922743797D-05 0.515357680702D+04
    0.100800000000D+06-0.949949026108D-07-0.116986850791D+01-0.447034835815D-07
    0.978162478245D+00 0.250687500000D+03-0.688781608462D-01-0.784604110482D-08
    0.239652839646D-09 0.000000000000D+00 0.167300000000D+04 0.000000000000D+00
    0.200000000000D+01 0.000000000000D+00-0.121071934700D-07 0.450000000000D+02
    0.936000000000D+05 0.400000000000D+01 0.000000000000D+00 0.000000000000D+00
13 12  1 30  4  0  0.0 0.227888580412D-03-0.216004991671D-11 0.000000000000D+00
    0.970000000000D+02-0.196875000000D+01 0.406088362936D-08-0.807103695451D-01
   -0.281259417534D-06 0.472154829186D-02 0.531971454620D-05 0.515372298813D+04
    0.100800000000D+06-0.651925802231D-07 0.308576511617D+01-0.223517417908D-07
    0.987358366662D+00 0.290250000000D+03 0.193981116856D+01-0.804676414390D-08
   -0.136077094037D-09 0.100000000000D+01 0.167300000000D+04 0.000000000000D+00
    0.280000000000D+01 0.000000000000D+00-0.116415321827D-07 0.970000000000D+02
    0.936180000000D+05 0.400000000000D+01 0.000000000000D+00 0.000000000000D+00
14 12  1 30  4  0  0.0 0.191965606064D-03 0.136424205266D-11 0.000000000000D+00
    0.320000000000D+02-0.112500000000D+01 0.423767651624D-08-0.730672457841D-01
   -0.113621354103D-06 0.620417296886D-02 0.547058880329D-05 0.515376969719D+04
    0.100800000000D+06-0.409781932831D-07 0.305990311494D+01 0.409781932831D-07
    0.980245645794D+00 0.286656250000D+03-0.205593298726D+01-0.812462413749D-08
   -0.143577409147D-09 0.000000000000D+00 0.167300000000D+04 0.000000000000D+00
    0.200000000000D+01 0.000000000000D+00-0.884756445885D-08 0.320000000000D+02
    0.100140000000D+06 0.400000000000D+01 0.000000000000D+00 0.000000000000D+00
15 12  1 30  4  0  0.0-0.937851145863D-04 0.568434188608D-12 0.000000000000D+00
    0.180000000000D+02 0.728125000000D+01 0.498556481164D-08-0.419961102849D+00
    0.378116965294D-06 0.428542227019D-02 0.448152422905D-05 0.515375715256D+04
    0.100800000000D+06 0.856816768646D-07 0.297604278287D+01-0.372529029846D-08
    0.947137404623D+00 0.282750000000D+03 0.129249850975D-01-0.845713798803D-08
   -0.101075638777D-09 0.000000000000D+00 0.167300000000D+04 0.000000000000D+00
    0.200000000000D+01 0.000000000000D+00-0.102445483208D-07 0.180000000000D+02
    0.936000000000D+05 0.400000000000D+01 0.000000000000D+00 0.000000000000D+00
16 12  1 30  4  0  0.0-0.221126247197D-03-0.170530256582D-11 0.000000000000D+00
    0.700000000000D+02-0.428125000000D+01 0.425767734935D-08 0.132713541547D+01
   -0.931322574616D-08 0.637820595875D-02 0.662170350552D-05 0.515360391998D+04
    0.100800000000D+06 0.298023223877D-07-0.115179758998D+01 0.912696123123D-07
    0.979057096538D+00 0.258531250000D+03-0.808028128015D-01-0.796211736843D-08
    0.151792037033D-09 0.100000000000D+01 0.167300000000D+04 0.000000000000D+00
    0.200000000000D+01 0.000000000000D+00-0.977888703346D-08 0.700000000000D+02
    0.936180000000D+05 0.400000000000D+01 0.000000000000D+00 0.000000000000D+00
17 12  1 30  4  0  0.0 0.151811167598D-03-0.227373675443D-11 0.000000000000D+00
    0.620000000000D+02-0.358125000000D+02 0.474805483819D-08 0.370089910999D+00
   -0.180304050446D-05 0.709631503560D-02 0.663846731186D-05 0.515362409973D+04
    0.100800000000D+06-0.316649675369D-07-0.110558134973D+00 0.135973095894D-06
    0.962705483313D+00 0.253968750000D+03-0.235696526077D+01-0.821069878754D-08
   -0.168578456750D-09 0.100000000000D+01 0.167300000000D+04 0.000000000000D+00
    0.200000000000D+01 0.000000000000D+00-0.107102096081D-07 0.620000000000D+02
    0.936180000000D+05 0.400000000000D+01 0.000000000000D+00 0.000000000000D+00
18 12  1 30  4  0  0.0 0.179162248969D-03 0.181898940355D-11 0.000000000000D+00
    0.550000000000D+02 0.613125000000D+02 0.521450291926D-08 0.182429260607D+01
    0.314787030220D-05 0.127884501126D-01 0.677816569805D-05 0.515366759872D+04
    0.100800000000D+06-0.327825546265D-06 0.196124280138D+01-0.186264514923D-06
    0.930353051453D+00 0.232000000000D+03-0.219874759398D+01-0.846035240764D-08
    0.122147945095D-09 0.000000000000D+00 0.167300000000D+04 0.000000000000D+00
    0.200000000000D+01 0.000000000000D+00-0.111758708954D-07 0.550000000000D+02
    0.936000000000D+05 0.400000000000D+01 0.000000000000D+00 0.000000000000D+00
19 12  1 30  4  0  0.0-0.230695586652D-03-0.386535248253D-11 0.000000000000D+00
    0.113000000000D+03-0.434375000000D+02 0.472591113888D-08-0.442372489950D+00
   -0.235252082348D-05 0.786025437992D-02 0.705756247044D-05 0.515373914719D+04
    0.100800000000D+06 0.149011611938D-06-0.572233953327D-01 0.167638063431D-07
    0.960126474310D+00 0.243156250000D+03 0.137782066125D+00-0.819176979152D-08
   -0.200365488884D-09 0.100000000000D+01 0.167300000000D+04 0.000000000000D+00
    0.200000000000D+01 0.000000000000D+00-0.144354999065D-07 0.113000000000D+03
    0.998700000000D+05 0.400000000000D+01 0.000000000000D+00 0.000000000000D+00
20 12  1 30  4  0  0.0 0.609587877989D-04 0.682121026330D-12 0.000000000000D+00
    0.670000000000D+02 0.770000000000D+02 0.510914138767D-08 0.222851970460D+01
    0.391714274883D-05 0.511906272732D-02 0.678561627865D-05 0.515378065872D+04
    0.100800000000D+06 0.968575477600D-07 0.190742569669D+01-0.707805156708D-07
    0.930705689319D+00 0.231593750000D+03 0.127487346876D+01-0.835784813792D-08
    0.142148778210D-09 0.100000000000D+01 0.167300000000D+04 0.000000000000D+00
    0.200000000000D+01 0.000000000000D+00-0.791624188423D-08 0.670000000000D+02
    0.936180000000D+05 0.400000000000D+01 0.000000000000D+00 0.000000000000D+00
